AEROCUBE 7C             
1 43043U 17071G   19025.89902569  .00004235  00000-0  11350-3 0  9992
2 43043  51.6394  35.4284 0005024   2.5489 357.5521 15.40226882 63880
CHEFSAT                 
1 43044U 17071H   19025.90617892  .00006245  00000-0  15304-3 0  9993
2 43044  51.6397  32.5475 0004897   2.4664 357.6345 15.42092131 63925
ASGARDIA 1              
1 43049U 17071N   19025.86233261  .00003032  00000-0  83779-4 0  9990
2 43049  51.6401  35.2002 0002738  25.8619 334.2502 15.40339351 63879
ISARA                   
1 43050U 17071P   19025.49143891  .00007016  00000-0  17286-3 0  9995
2 43050  51.6391  35.0027 0002598  21.7395 338.3700 15.41714552 63847
FAUNA                   
1 43052U 17071R   19025.43681146  .00003929  00000-0  10491-3 0  9991
2 43052  51.6400  36.8739 0002620  21.7691 338.3405 15.40548766 63814
CORVUS BC3              
1 43118U 18004H   19025.88935480  .00000680  00000-0  32302-4 0  9990
2 43118  97.5059  93.5996 0011547  42.8264 317.3870 15.22601769 57593
MICROMAS-2A             
1 43131U 18004W   19025.93564805  .00001622  00000-0  70778-4 0  9996
2 43131  97.5076  94.0462 0010578  45.7927 314.4177 15.23571838 57628
CICERO 7                
1 43143U 18004AJ  19025.77948625  .00001285  00000-0  56326-4 0  9995
2 43143  97.5068  94.0851 0008921  56.1445 304.0639 15.23811599 57612
GOMX4-B                 
1 43196U 18015E   19025.89835913  .00000228  00000-0  12351-4 0  9999
2 43196  97.3699 155.6877 0020435  93.2913 267.0663 15.23791788 54446
GOMX4-A                 
1 43197U 18015F   19026.42797166  .00000285  00000-0  14663-4 0  9998
2 43197  97.3724 156.2202 0021019  91.9445 343.9635 15.23885907 54539
1KUNS-PF                
1 43466U 98067NP  19026.30007997  .00015257  00000-0  18344-3 0  9999
2 43466  51.6398 339.4245 0000628  95.3075 264.7990 15.61062530 40484
UBAKUSAT                
1 43467U 98067NQ  19026.34287517  .00010743  00000-0  13906-3 0  9996
2 43467  51.6392 340.4567 0001673 232.7979 127.2861 15.59487359 40486
BATSU-CS1 (IRAZU)       
1 43468U 98067NR  19025.89145442  .00022794  00000-0  25867-3 0  9994
2 43468  51.6394 340.4422 0000884  95.9875 264.1220 15.62256181140422
CUBERRT                 
1 43546U 98067NU  19025.87592580  .00026933  00000-0  33883-3 0  9994
2 43546  51.6394 344.8294 0004939 318.4542  41.6075 15.59444998 30518
TEMPEST-D               
1 43547U 98067NV  19025.90235728  .00004334  00000-0  67216-4 0  9996
2 43547  51.6400 346.5014 0005432 311.9067  48.1461 15.56329163 30171
RAINCUBE                
1 43548U 98067NW  19025.50009870  .00015448  00000-0  20846-3 0  9995
2 43548  51.6393 347.5671 0005112 322.4623  37.6012 15.57979163 30574
HALOSAT                 
1 43549U 98067NX  19026.33410625  .00011710  00000-0  15956-3 0  9996
2 43549  51.6393 343.3895 0005104 328.3145  31.7539 15.58002327 30267
ENDUROSAT ONE           
1 43551U 98067NZ  19025.88497537  .00016048  00000-0  20967-3 0  9992
2 43551  51.6402 344.8883 0005573 335.1001  24.9722 15.58809110 30613
EQUISAT                 
1 43552U 98067PA  19025.91441499  .00009678  00000-0  13175-3 0  9997
2 43552  51.6427 345.0843 0004911 330.6764  29.3962 15.58268226 30578
AEROCUBE 12A            
1 43556U 18046C   19025.54932532  .00001867  00000-0  79596-4 0  9994
2 43556  51.6430  27.8373 0008016 274.7558  85.2506 15.28230054 29510
AEROCUBE 12B            
1 43557U 18046D   19025.94583099  .00001527  00000-0  67571-4 0  9992
2 43557  51.6431  25.9828 0007992 276.2501  83.7568 15.28160896 29521
UITMSAT-1               
1 43589U 98067PD  19026.10199139  .00013958  00000-0  18872-3 0  9995
2 43589  51.6387 344.8309 0005351 344.8373  15.2458 15.58022021 26333
MAYA-1                  
1 43590U 98067PE  19025.26527375  .00015061  00000-0  20306-3 0  9992
2 43590  51.6390 348.9942 0005529 342.3940  17.6860 15.58023696 26137
BHUTAN-1                
1 43591U 98067PF  19025.90221374  .00014644  00000-0  19716-3 0  9993
2 43591  51.6395 345.7500 0005632 345.4423  14.6406 15.58088969 26231
SIRIUSSAT-1             
1 43595U 98067PG  19025.89016645  .00014028  00000-0  19318-3 0  9992
2 43595  51.6392 346.4136 0002677 293.9375  66.1337 15.57530554 25408
SIRIUSSAT-2             
1 43596U 98067PH  19025.96991470  .00013329  00000-0  18494-3 0  9996
2 43596  51.6405 346.2127 0003318 296.5313  63.5339 15.57377013 25419
TANUSHA-3               
1 43597U 98067PJ  19025.87301078  .00016587  00000-0  22293-3 0  9997
2 43597  51.6384 346.2812 0002827 315.8310  44.2456 15.58031575 25409
SURFSAT                 
1 43614U 18070B   19025.98892578  .00002738  00000-0  75907-4 0  9999
2 43614  93.0392 304.2802 0018433 133.1300 227.1498 15.36845627 20333
CP-7 (DAVE)             
1 43615U 18070C   19026.18478076  .00002169  00000-0  60238-4 0  9995
2 43615  93.0395 304.3619 0018417 132.3510 227.9307 15.36815427 20365
ELFIN-B                 
1 43616U 18070D   19025.84503339  .00003687  00000-0  10122-3 0  9991
2 43616  93.0354 304.1702 0019276 136.8420 223.4348 15.37115727 20313
ELFIN-A                 
1 43617U 18070E   19026.03744083  .00003907  00000-0  10716-3 0  9991
2 43617  93.0408 304.3529 0018521 132.6304 227.6514 15.37153883 20349
DEBRISSAT-1             
1 43621U 98067PM  19026.45291359  .00224728  00000-0  13493-2 0  9999
2 43621  51.6380 335.9835 0003147  72.0806 288.0768 15.76547898 20589
CUBEBEL-1 (BSUSAT-1)    
1 43666U 18083E   19026.46635946  .00000935  00000-0  50340-4 0  9999
2 43666  97.5320  51.8450 0014506 331.8133 166.3803 15.17262880 13566
DEBRISSAT-2             
1 43680U 98067PR  19026.19604087  .00014555  00000-0  19834-3 0  9992
2 43680  51.6428 344.7035 0002521 348.6630  11.4310 15.57779895 34195
CICERO 10               
1 43690U 18088A   19025.86602477  .00000912  00000-0  41143-4 0  9993
2 43690  85.0360  53.1687 0016094  23.5072 336.6900 15.19369342 11490
IRVINE01                
1 43693U 18088D   19025.86830916  .00002215  00000-0  98504-4 0  9998
2 43693  85.0338  53.0441 0018953   8.8704 351.2868 15.20724485 11502
PROXIMA I               
1 43694U 18088E   19025.84472117  .00000871  00000-0  37164-4 0  9993
2 43694  85.0303  52.9857 0019441   0.0424   0.0815 15.21111624 11507
PROXIMA II              
1 43696U 18088G   19026.17333219  .00000870  00000-0  37107-4 0  9997
2 43696  85.0304  52.7689 0019421 358.7666   1.3524 15.21118109 11551
FACSAT-1                
1 43721U 18096C   19026.46450807  .00001209  00000-0  49894-4 0  9993
2 43721  97.4776  96.4769 0019848 113.0865 247.2468 15.25848036  8894
CENTAURI-2              
1 43722U 18096D   19026.46101518  .00001608  00000-0  65192-4 0  9998
2 43722  97.4776  96.4823 0019935 113.9882 246.3446 15.25962247  8887
STF-1                   
1 43852U 18104D   19025.38749186  .00000041  00000-0  00000+0 0  9993
2 43852  85.0348 151.8655 0015594 146.1687 214.0635 15.20288947  6081
LUME 1                  
1 43908U 18111AJ  19026.48269405  .00000906  00000-0  40017-4 0  9993
2 43908  97.2996 295.5775 0023004 133.5180 226.7974 15.24009080  4637
AOBA VELOX-IV           
1 43940U 19003J   19026.43085743  .00001072  00000-0  47865-4 0  9999
2 43940  97.2986  88.4777 0023780 214.3758 211.7138 15.23262049  1271
